COMMENT,ORIGINATOR,NORAD_CAT_ID,OBJECT_NAME,OBJECT_TYPE,CLASSIFICATION_TYPE,INTLDES,EPOCH,EPOCH_MICROSECONDS,MEAN_MOTION,ECCENTRICITY,INCLINATION,RA_OF_ASC_NODE,ARG_OF_PERICENTER,MEAN_ANOMALY,EPHEMERIS_TYPE,ELEMENT_SET_NO,REV_AT_EPOCH,BSTAR,MEAN_MOTION_DOT,MEAN_MOTION_DDOT,FILE,TLE_LINE0,TLE_LINE1,TLE_LINE2,OBJECT_ID,OBJECT_NUMBER,SEMIMAJOR_AXIS,PERIOD,APOGEE,PERIGEE,DECAYED
"GENERATED VIA SPACETRACK.ORG API","18 SPCS","55759","STARLINK-5081","PAYLOAD","U","23028U","2023-10-18 02:16:00","98112","14.98331991","0.0002838","70","267.2727","267.3798","92.7036","0","999","3567","0.000027885","0.0000024","0","4039578","0 STARLINK-5081","1 55759U 23028U   23291.09444558  .00000240  00000-0  27885-4 0  9992","2 55759  70.0000 267.2727 0002838 267.3798  92.7036 14.98331991 35672","2023-028U","55759","6950.187","96.107","574.024","570.079","0"
"GENERATED VIA SPACETRACK.ORG API","18 SPCS","55759","STARLINK-5081","PAYLOAD","U","23028U","2023-10-18 02:16:00","98112","14.98331991","0.0002838","70","267.2727","267.3798","92.7036","0","999","3567","0.000027885","0.0000024","0","4040140","0 STARLINK-5081","1 55759U 23028U   23291.09444558  .00000240  00000-0  27885-4 0  9992","2 55759  70.0000 267.2727 0002838 267.3798  92.7036 14.98331991 35672","2023-028U","55759","6950.187","96.107","574.024","570.079","0"
"GENERATED VIA SPACETRACK.ORG API","18 SPCS","55948","STARLINK-5900","PAYLOAD","U","23037AL","2023-10-18 02:16:01","670592","14.99297846","0.0002777","70","307.2333","261.4036","98.6809","0","999","3361","-0.0000079035","-0.00000191","0","4040140","0 STARLINK-5900","1 55948U 23037AL  23291.09446378 -.00000191  00000-0 -79035-5 0  9996","2 55948  70.0000 307.2333 0002777 261.4036  98.6809 14.99297846 33618","2023-037AL","55948","6947.202","96.045","570.996","567.137","0"
"GENERATED VIA SPACETRACK.ORG API","18 SPCS","55935","STARLINK-5920","PAYLOAD","U","23037X","2023-10-18 02:28:46","240608","14.98331338","0.0002683","70","327.1494","270.715","89.3701","0","999","3312","-0.0000025898","-0.00000124","0","4040140","0 STARLINK-5920","1 55935U 23037X   23291.10331297 -.00000124  00000-0 -25898-5 0  9991","2 55935  70.0000 327.1494 0002683 270.7150  89.3701 14.98331338 33127","2023-037X","55935","6950.189","96.107","573.918","570.189","0"
"GENERATED VIA SPACETRACK.ORG API","18 SPCS","56473","STARLINK-5486","PAYLOAD","U","23064AB","2023-10-18 08:50:37","957632","14.9833638","0.0003013","70","166.4349","265.9707","94.1108","0","999","2528","-0.00017765","-0.00002212","0","4039990","0 STARLINK-5486","1 56473U 23064AB  23291.36849488 -.00002212  00000-0 -17765-3 0  9995","2 56473  70.0000 166.4349 0003013 265.9707  94.1108 14.98336380 25285","2023-064AB","56473","6950.173","96.107","574.132","569.944","0"
"GENERATED VIA SPACETRACK.ORG API","18 SPCS","56485","STARLINK-6210","PAYLOAD","U","23064AP","2023-10-18 09:38:40","833600","14.98332089","0.000287","70","166.1443","269.1752","90.9078","0","999","2529","-0.000039327","-0.00000562","0","4040032","0 STARLINK-6210","1 56485U 23064AP  23291.40186150 -.00000562  00000-0 -39327-4 0  9998","2 56485  70.0000 166.1443 0002870 269.1752  90.9078 14.98332089 25299","2023-064AP","56485","6950.186","96.107","574.046","570.057","0"
"GENERATED VIA SPACETRACK.ORG API","18 SPCS","55749","STARLINK-5560","PAYLOAD","U","23028J","2023-10-18 09:58:57","520992","14.98333151","0.0002835","70","286.2282","268.0425","92.0409","0","999","3523","0.000064522","0.00000677","0","4039884","0 STARLINK-5560","1 55749U 23028J   23291.41594353  .00000677  00000-0  64522-4 0  9999","2 55749  70.0000 286.2282 0002835 268.0425  92.0409 14.98333151 35239","2023-028J","55749","6950.183","96.107","574.019","570.078","0"
"GENERATED VIA SPACETRACK.ORG API","18 SPCS","56803","STARLINK-6029","PAYLOAD","U","23078AN","2023-10-18 10:06:22","54176","14.9850331","0.0003018","70","26.2507","261.0332","99.0485","0","999","2213","-0.0028233","-0.00033769","0","4039666","0 STARLINK-6029","1 56803U 23078AN  23291.42108859 -.00033769  00000-0 -28233-2 0  9996","2 56803  70.0000  26.2507 0003018 261.0332  99.0485 14.98503310 22139","2023-078AN","56803","6949.657","96.096","573.619","569.425","0"
"GENERATED VIA SPACETRACK.ORG API","18 SPCS","55397","STARLINK-5224","PAYLOAD","U","23014G","2023-10-18 11:13:53","97024","14.99271993","0.0003544","70","86.3365","264.9163","95.1592","0","999","4080","-0.0002971","-0.00003725","0","4039743","0 STARLINK-5224","1 55397U 23014G   23291.46797566 -.00003725  00000-0 -29710-3 0  9997","2 55397  70.0000  86.3365 0003544 264.9163  95.1592 14.99271993 40803","2023-014G","55397","6947.281","96.047","571.608","566.684","0"
"GENERATED VIA SPACETRACK.ORG API","18 SPCS","55271","STARLINK-5306","PAYLOAD","U","23010C","2023-10-18 11:19:30","724896","14.98327847","0.0002938","70","86.2591","273.5949","86.4874","0","999","4167","-0.000012611","-0.00000243","0","4040119","0 STARLINK-5306","1 55271U 23010C   23291.47188339 -.00000243  00000-0 -12611-4 0  9992","2 55271  70.0000  86.2591 0002938 273.5949  86.4874 14.98327847 41679","2023-010C","55271","6950.200","96.107","574.107","570.023","0"
"GENERATED VIA SPACETRACK.ORG API","18 SPCS","55298","STARLINK-5272","PAYLOAD","U","23010AF","2023-10-18 11:25:09","843168","14.98329185","0.0002948","70","65.9977","271.0012","89.0809","0","999","4216","-0.000032972","-0.00000486","0","4040119","0 STARLINK-5272","1 55298U 23010AF  23291.47580837 -.00000486  00000-0 -32972-4 0  9991","2 55298  70.0000  65.9977 0002948 271.0012  89.0809 14.98329185 42164","2023-010AF","55298","6950.195","96.107","574.109","570.011","0"
"GENERATED VIA SPACETRACK.ORG API","18 SPCS","56803","STARLINK-6029","PAYLOAD","U","23078AN","2023-10-18 13:18:39","18528","14.9838653","0.0003086","70","25.9145","270.6803","89.4002","0","999","2215","-0.00085596","-0.00010306","0","4040227","0 STARLINK-6029","1 56803U 23078AN  23291.55461827 -.00010306  00000-0 -85596-3 0  9995","2 56803  70.0000  25.9145 0003086 270.6803  89.4002 14.98386530 22150","2023-078AN","56803","6950.018","96.103","574.028","569.738","0"
"GENERATED VIA SPACETRACK.ORG API","18 SPCS","56803","STARLINK-6029","PAYLOAD","U","23078AN","2023-10-18 13:18:39","18528","14.9838653","0.0003086","70","25.9145","270.6803","89.4002","0","999","2189","-0.00085596","-0.00010306","0","4040456","0 STARLINK-6029","1 56803U 23078AN  23291.55461827 -.00010306  00000-0 -85596-3 0  9995","2 56803  70.0000  25.9145 0003086 270.6803  89.4002 14.98386530 21890","2023-078AN","56803","6950.018","96.103","574.028","569.738","0"
"GENERATED VIA SPACETRACK.ORG API","18 SPCS","55956","STARLINK-5883","PAYLOAD","U","23037AU","2023-10-18 14:00:01","224","14.98336816","0.0003032","70","305.7497","278.1817","61.7821","0","999","3403","-0.0014649","-0.00017531","0","4039969","0 STARLINK-5883","1 55956U 23037AU  23291.58334491 -.00017531  00000-0 -14649-2 0  9994","2 55956  70.0000 305.7497 0003032 278.1817  61.7821 14.98336816 34030","2023-037AU","55956","6950.172","96.107","574.144","569.930","0"
"GENERATED VIA SPACETRACK.ORG API","18 SPCS","56482","STARLINK-6220","PAYLOAD","U","23064AL","2023-10-18 15:03:08","908416","14.98332553","0.0002765","70","165.7291","272.0801","88.0041","0","999","2532","-0.000053611","-0.00000733","0","4040311","0 STARLINK-6220","1 56482U 23064AL  23291.62718644 -.00000733  00000-0 -53611-4 0  9990","2 56482  70.0000 165.7291 0002765 272.0801  88.0041 14.98332553 25321","2023-064AL","56482","6950.185","96.107","573.972","570.128","0"
"GENERATED VIA SPACETRACK.ORG API","18 SPCS","56482","STARLINK-6220","PAYLOAD","U","23064AL","2023-10-18 15:03:08","908416","14.98332553","0.0002765","70","165.7291","272.0801","88.0041","0","999","2496","-0.000053611","-0.00000733","0","4040456","0 STARLINK-6220","1 56482U 23064AL  23291.62718644 -.00000733  00000-0 -53611-4 0  9990","2 56482  70.0000 165.7291 0002765 272.0801  88.0041 14.98332553 24960","2023-064AL","56482","6950.185","96.107","573.972","570.128","0"
"GENERATED VIA SPACETRACK.ORG API","18 SPCS","55282","STARLINK-5330","PAYLOAD","U","23010P","2023-10-18 16:43:56","377920","14.98329331","0.0002938","70","85.4348","270.3872","89.6951","0","999","4201","0.000025318","0.00000209","0","4040456","0 STARLINK-5330","1 55282U 23010P   23291.69718030  .00000209  00000-0  25318-4 0  9993","2 55282  70.0000  85.4348 0002938 270.3872  89.6951 14.98329331 42012","2023-010P","55282","6950.195","96.107","574.102","570.018","0"
"GENERATED VIA SPACETRACK.ORG API","18 SPCS","55298","STARLINK-5272","PAYLOAD","U","23010AF","2023-10-18 19:25:49","283616","14.98356563","0.0002914","70","65.1558","270.1533","89.9292","0","999","4221","-0.00037822","-0.00004606","0","4040431","0 STARLINK-5272","1 55298U 23010AF  23291.80959819 -.00004606  00000-0 -37822-3 0  9994","2 55298  70.0000  65.1558 0002914 270.1533  89.9292 14.98356563 42213","2023-010AF","55298","6950.111","96.105","574.001","569.950","0"
"GENERATED VIA SPACETRACK.ORG API","18 SPCS","55298","STARLINK-5272","PAYLOAD","U","23010AF","2023-10-18 19:25:49","283616","14.98356563","0.0002914","70","65.1558","270.1533","89.9292","0","999","4340","-0.00037822","-0.00004606","0","4040456","0 STARLINK-5272","1 55298U 23010AF  23291.80959819 -.00004606  00000-0 -37822-3 0  9994","2 55298  70.0000  65.1558 0002914 270.1533  89.9292 14.98356563 43405","2023-010AF","55298","6950.111","96.105","574.001","569.950","0"
"GENERATED VIA SPACETRACK.ORG API","18 SPCS","55946","STARLINK-5857","PAYLOAD","U","23037AJ","2023-10-18 19:30:09","629280","14.98381528","0.000304","70","325.2082","266.7257","93.3554","0","999","3357","-0.0008564","-0.0001031","0","4040330","0 STARLINK-5857","1 55946U 23037AJ  23291.81261145 -.00010310  00000-0 -85640-3 0  9992","2 55946  70.0000 325.2082 0003040 266.7257  93.3554 14.98381528 33578","2023-037AJ","55946","6950.034","96.104","574.011","569.786","0"
